ONEWEB-0029             
1 45445U 20020X   25350.20991983 -.00000242  00000+0 -71835-3 0  9998
2 45445  87.8862  57.4988 0001889 102.0369 258.0971 13.11415615278671
ONEWEB-0068             
1 45446U 20020Y   25350.26998754  .00000408  00000+0  11149-2 0  9991
2 45446  87.8864  57.4761 0001937 102.0558 258.0787 13.11416677278626
ONEWEB-0046             
1 45447U 20020Z   25350.26165341  .00000640  00000+0  17701-2 0  9998
2 45447  87.8863  57.4855 0001884 109.9609 250.1722 13.11415172278636
ONEWEB-0063             
1 45448U 20020AA  25350.21416592 -.00000409  00000+0 -11909-2 0  9990
2 45448  87.8863  57.4930 0001705 111.4010 248.7300 13.11418600278710
ONEWEB-0019             
1 45449U 20020AB  25350.25851871  .00000550  00000+0  15031-2 0  9993
2 45449  87.8849  57.4902 0001730  98.0619 262.0706 13.11991749278569
ONEWEB-0094             
1 45450U 20020AC  25350.19676259  .00000029  00000+0  42196-4 0  9998
2 45450  87.9117  42.2201 0001888  96.3820 263.7527 13.17647170282211
ONEWEB-0087             
1 45451U 20020AD  25350.22419539 -.00000465  00000+0 -13475-2 0  9991
2 45451  87.8874  57.4497 0002036 100.7204 259.4153 13.11416721278603
ONEWEB-0082             
1 45452U 20020AE  25350.22093216 -.00000436  00000+0 -12664-2 0  9999
2 45452  87.8874  57.4756 0002014 100.3763 259.7592 13.11415344278693
ONEWEB-0050             
1 45453U 20020AF  25350.26782662  .00002539  00000+0  26411-3 0  9994
2 45453  88.9237 258.1615 0000494 315.6060  44.5129 14.89574772313147
ONEWEB-0034             
1 45454U 20020AG  25350.24214289  .00000165  00000+0  43057-3 0  9996
2 45454  87.8860  57.4846 0001767 101.7346 258.3980 13.11418374278610
ONEWEB-0060             
1 45455U 20020AH  25350.21330542 -.00000305  00000+0 -89578-3 0  9991
2 45455  87.8850  57.5078 0002794  94.4849 265.6599 13.11417194278565
ONEWEB-0086             
1 45456U 20020AJ  25350.19213346  .00000476  00000+0  13063-2 0  9993
2 45456  87.8863  57.4917 0002157  83.4885 276.6488 13.11416160278620
ONEWEB-0088             
1 45457U 20020AK  25350.24638244  .00000301  00000+0  81281-3 0  9993
2 45457  87.8875  57.4366 0001853 110.9915 249.1411 13.11414524278560
ONEWEB-0102             
1 47258U 20100A   25350.16523143  .00000314  00000+0  83492-3 0  9995
2 47258  87.8933  27.0412 0001677  93.1934 266.9387 13.12551874240725
ONEWEB-0109             
1 47259U 20100B   25350.17348395  .00000460  00000+0  12409-2 0  9992
2 47259  87.8938  27.0085 0001682  94.2498 265.8822 13.12503664240557
ONEWEB-0110             
1 47260U 20100C   25350.35244251 -.00000418  00000+0 -11983-2 0  9991
2 47260  87.8938  26.9569 0001966  90.1103 270.0250 13.12350731240746
ONEWEB-0111             
1 47261U 20100D   25350.15438597 -.00000113  00000+0 -35072-3 0  9996
2 47261  87.8941  27.0144 0001739  95.5831 264.5496 13.12394344240554
ONEWEB-0114             
1 47262U 20100E   25350.33755319  .00000313  00000+0  83533-3 0  9996
2 47262  87.8942  26.9728 0001412  97.8420 262.2869 13.12436221240537
ONEWEB-0117             
1 47263U 20100F   25350.17679118  .00000473  00000+0  12783-2 0  9996
2 47263  87.8938  27.0016 0001816  96.1935 263.9401 13.12483895240524
ONEWEB-0118             
1 47264U 20100G   25350.36239325 -.00000402  00000+0 -11546-2 0  9990
2 47264  87.8939  26.9647 0001558 106.3135 253.8165 13.12294108240749
ONEWEB-0119             
1 47265U 20100H   25350.16027058  .00000229  00000+0  59916-3 0  9996
2 47265  87.8930  27.0387 0001732  94.4325 265.7001 13.12581367240697
ONEWEB-0120             
1 47266U 20100J   25350.33602387  .00000360  00000+0  96575-3 0  9998
2 47266  87.8931  27.0049 0001685  98.0226 262.1094 13.12448158240740
ONEWEB-0121             
1 47267U 20100K   25350.17185209  .00000514  00000+0  13905-2 0  9996
2 47267  87.8940  27.0064 0001928  92.7774 267.3576 13.12513136240636
ONEWEB-0122             
1 47268U 20100L   25350.16673999  .00000324  00000+0  86319-3 0  9993
2 47268  87.8939  27.0100 0001710  91.6331 268.4993 13.12539283240548
ONEWEB-0123             
1 47269U 20100M   25350.16190215  .00000283  00000+0  75112-3 0  9992
2 47269  87.8932  27.0370 0001758 100.8047 259.3280 13.12571266240680
ONEWEB-0124             
1 47270U 20100N   25350.15108674 -.00000137  00000+0 -41580-3 0  9993
2 47270  87.8931  27.0435 0001924  98.4332 261.7015 13.12414626240563
ONEWEB-0125             
1 47271U 20100P   25350.35740942 -.00000315  00000+0 -91363-3 0  9998
2 47271  87.8940  26.9661 0001948 103.9860 256.1485 13.12323849240652
ONEWEB-0126             
1 47272U 20100Q   25350.14956904 -.00000219  00000+0 -64540-3 0  9993
2 47272  87.8941  27.0307 0001639  96.8540 263.2775 13.12424828240699
ONEWEB-0127             
1 47273U 20100R   25350.34416581  .00000121  00000+0  30105-3 0  9998
2 47273  87.8934  27.0019 0001650  94.5622 265.5695 13.12401013240744
ONEWEB-0128             
1 47274U 20100S   25350.36656783 -.00000309  00000+0 -89436-3 0  9992
2 47274  87.8931  27.0142 0001941  88.4900 271.6451 13.12490242240765
ONEWEB-0129             
1 47275U 20100T   25350.34581975  .00000103  00000+0  25108-3 0  9997
2 47275  87.8943  26.9725 0000728  70.5060 289.6147 13.12388001240697
ONEWEB-0130             
1 47276U 20100U   25350.14446606 -.00000303  00000+0 -87759-3 0  9991
2 47276  87.8939  27.0075 0001731  93.0844 267.0483 13.12451149240639
ONEWEB-0131             
1 47277U 20100V   25350.36985571 -.00000406  00000+0 -11630-2 0  9993
2 47277  87.8941  26.9931 0001798  95.7819 264.3514 13.12471277240703
ONEWEB-0132             
1 47278U 20100W   25350.17019587  .00000425  00000+0  11434-2 0  9999
2 47278  87.8940  27.0342 0001821  95.1875 264.9461 13.12523206240576
ONEWEB-0133             
1 47279U 20100X   25350.33906253  .00000295  00000+0  78573-3 0  9996
2 47279  87.8935  26.9622 0001880  93.0454 267.0890 13.12429461240753
ONEWEB-0134             
1 47280U 20100Y   25350.15604457 -.00000206  00000+0 -60723-3 0  9991
2 47280  87.8940  26.9941 0001745  87.8234 272.3094 13.12385782240709
ONEWEB-0135             
1 47281U 20100Z   25350.12703370 -.00000334  00000+0 -96428-3 0  9996
2 47281  87.8934  27.0393 0001882  84.9755 275.1588 13.12331693240727
ONEWEB-0136             
1 47282U 20100AA  25350.14611262 -.00000400  00000+0 -11478-2 0  9992
2 47282  87.8941  27.0052 0001658  83.3600 276.7717 13.12444263240652
ONEWEB-0137             
1 47283U 20100AB  25350.18012841  .00000455  00000+0  12278-2 0  9992
2 47283  87.8941  27.0040 0001750 100.5908 259.5418 13.12466423240565
ONEWEB-0138             
1 47284U 20100AC  25350.15858821  .00000127  00000+0  31711-3 0  9996
2 47284  87.8942  27.0169 0001675  91.2538 268.8783 13.12590334240646
ONEWEB-0139             
1 47285U 20100AD  25350.35094942 -.00000081  00000+0 -26009-3 0  9990
2 47285  87.8938  26.9683 0001764  96.3513 263.7816 13.12362935240745
ONEWEB-0140             
1 47286U 20100AE  25350.15273086 -.00000279  00000+0 -81176-3 0  9992
2 47286  87.8940  26.9946 0001723  92.3549 267.7776 13.12404672240688
ONEWEB-0141             
1 47287U 20100AF  25350.35065654 -.00000441  00000+0 -12639-2 0  9993
2 47287  87.8931  26.9642 0001603 106.2817 253.8488 13.12361335240697
ONEWEB-0142             
1 47288U 20100AG  25350.18689390  .00000273  00000+0  72475-3 0  9990
2 47288  87.8939  27.0200 0001368 101.6527 258.4755 13.12429338240666
ONEWEB-0143             
1 47289U 20100AH  25350.34913435 -.00000055  00000+0 -18860-3 0  9997
2 47289  87.8937  26.9835 0001777  98.2501 261.8829 13.12370455240669
ONEWEB-0144             
1 47290U 20100AJ  25350.16853846  .00000445  00000+0  11995-2 0  9990
2 47290  87.8936  26.9881 0001475  88.8599 271.2699 13.12533804240566
ONEWEB-0145             
1 47291U 20100AK  25350.36819906 -.00000392  00000+0 -11243-2 0  9991
2 47291  87.8941  26.9870 0001678  96.0433 264.0886 13.12481814240789
ONEWEB-0146             
1 47292U 20100AL  25350.36491180 -.00000243  00000+0 -70940-3 0  9997
2 47292  87.8940  26.9740 0002130  97.4266 262.7105 13.12499564240698
ONEWEB-0147             
1 47293U 20100AM  25350.10222361  .00000462  00000+0  12469-2 0  9995
2 47293  87.8940  27.0045 0001794  87.0047 273.1287 13.12474025240553
ONEWEB-0115             
1 48042U 21025A   25350.04476899 -.00000141  00000+0 -41991-3 0  9994
2 48042  87.8986 356.6156 0001855  91.8555 268.2786 13.13471428229556
ONEWEB-0152             
1 48043U 21025B   25350.05831946 -.00000360  00000+0 -10198-2 0  9991
2 48043  87.8978 356.6194 0001920  90.6422 269.4927 13.13470604229514
ONEWEB-0153             
1 48044U 21025C   25350.26484588  .00000032  00000+0  51370-4 0  9994
2 48044  87.8982 356.5838 0001723  91.3738 268.7588 13.13470905229534
ONEWEB-0154             
1 48045U 21025D   25350.26145576  .00000085  00000+0  19828-3 0  9995
2 48045  87.8982 356.5808 0001790  88.2530 271.8804 13.13471488229499
ONEWEB-0116             
1 48046U 21025E   25350.30038653 -.00000019  00000+0 -86740-4 0  9995
2 48046  87.8986 356.5577 0001909  90.6357 269.4991 13.13471888229644
ONEWEB-0150             
1 48047U 21025F   25350.27668484 -.00000503  00000+0 -14136-2 0  9999
2 48047  87.8987 356.5581 0001682  96.4634 263.6686 13.13469758229539
ONEWEB-0107             
1 48048U 21025G   25350.04985112 -.00000261  00000+0 -74903-3 0  9995
2 48048  87.8986 356.6002 0001504  89.1142 271.0159 13.13471570229481
ONEWEB-0101             
1 48049U 21025H   25350.08878005  .00000350  00000+0  92313-3 0  9994
2 48049  87.8976 356.6250 0001677  85.6834 274.4487 13.13472289229463
ONEWEB-0113             
1 48050U 21025J   25350.02764015  .00000154  00000+0  38467-3 0  9997
2 48050  87.8984 356.5657 0001904  96.4065 263.7281 13.13984855229553
ONEWEB-0112             
1 48051U 21025K   25350.05492284 -.00000291  00000+0 -83233-3 0  9992
2 48051  87.8990 356.5963 0001719  93.0077 267.1249 13.13471532229556
